{
    "links": {
        "self": "http://www.neowsapp.com/rest/v1/neo/3843118?api_key=iIulBulltgU6a56xZRHN4H3l9WmuAYTsLGpBGhQ2"
    },
    "id": "3843118",
    "neo_reference_id": "3843118",
    "name": "(2019 NO1)",
    "designation": "2019 NO1",
    "nasa_jpl_url": "http://ssd.jpl.nasa.gov/sbdb.cgi?sstr=3843118",
    "absolute_magnitude_h": 21.6,
    "estimated_diameter": {
        "kilometers": {
            "estimated_diameter_min": 0.1272198785,
            "estimated_diameter_max": 0.2844722965
        },
        "meters": {
            "estimated_diameter_min": 127.2198785394,
            "estimated_diameter_max": 284.4722965033
        },
        "miles": {
            "estimated_diameter_min": 0.0790507431,
            "estimated_diameter_max": 0.1767628354
        },
        "feet": {
            "estimated_diameter_min": 417.3880663071,
            "estimated_diameter_max": 933.3080892598
        }
    },
    "is_potentially_hazardous_asteroid": false,
    "close_approach_data": [
        {
            "close_approach_date": "1954-05-06",
            "close_approach_date_full": "1954-May-06 23:31",
            "epoch_date_close_approach": -494036940000,
            "relative_velocity": {
                "kilometers_per_second": "20.9851715087",
                "kilometers_per_hour": "75546.6174312588",
                "miles_per_hour": "46941.730147773"
            },
            "miss_distance": {
                "astronomical": "0.1182735027",
                "lunar": "46.0083925503",
                "kilometers": "17693464.081359249",
                "miles": "10994208.7719216762"
            },
            "orbiting_body": "Venus"
        },
        {
            "close_approach_date": "2019-07-02",
            "close_approach_date_full": "2019-Jul-02 13:00",
            "epoch_date_close_approach": 1562072400000,
            "relative_velocity": {
                "kilometers_per_second": "20.8976821052",
                "kilometers_per_hour": "75231.6555787232",
                "miles_per_hour": "46746.0251011239"
            },
            "miss_distance": {
                "astronomical": "0.1617976387",
                "lunar": "62.9392814543",
                "kilometers": "24204582.120549569",
                "miles": "15040029.9142552922"
            },
            "orbiting_body": "Earth"
        },
        {
            "close_approach_date": "2022-04-27",
            "close_approach_date_full": "2022-Apr-27 14:57",
            "epoch_date_close_approach": 1651071420000,
            "relative_velocity": {
                "kilometers_per_second": "16.0984814302",
                "kilometers_per_hour": "57954.5331487337",
                "miles_per_hour": "36010.6931112229"
            },
            "miss_distance": {
                "astronomical": "0.0996623391",
                "lunar": "38.7686499099",
                "kilometers": "14909273.648577717",
                "miles": "9264193.0588858146"
            },
            "orbiting_body": "Mars"
        }
    ],
    "orbital_data": {
        "orbit_id": "3",
        "orbit_determination_date": "2019-07-24 05:55:02",
        "first_observation_date": "2019-07-03",
        "last_observation_date": "2019-07-24",
        "data_arc_in_days": 21,
        "observations_used": 27,
        "orbit_uncertainty": "9",
        "minimum_orbit_intersection": ".0696891",
        "jupiter_tisserand_invariant": "5.061",
        "epoch_osculation": "2458668.5",
        "eccentricity": ".4868237893003552",
        "semi_major_axis": "1.222714528299824",
        "inclination": "18.06365906646124",
        "ascending_node_longitude": "105.3105132842937",
        "orbital_period": "493.8397403982561",
        "perihelion_distance": ".6274680084003071",
        "perihelion_argument": "65.7490767556004",
        "aphelion_distance": "1.81796104819934",
        "perihelion_time": "2458606.590909987394",
        "mean_anomaly": "45.13057694904147",
        "mean_motion": ".7289814297036498",
        "equinox": "J2000",
        "orbit_class": {
            "orbit_class_type": "APO",
            "orbit_class_description": "Near-Earth asteroid orbits which cross the Earth’s orbit similar to that of 1862 Apollo",
            "orbit_class_range": "a (semi-major axis) > 1.0 AU; q (perihelion) < 1.017 AU"
        }
    },
    "is_sentry_object": false
}